[{"OBJECT_NAME":"STARLINK-31434","OBJECT_ID":"2024-046Q","EPOCH":"2026-03-09T13:18:32.414976","MEAN_MOTION":15.30184588,"ECCENTRICITY":8.56e-5,"INCLINATION":53.1614,"RA_OF_ASC_NODE":155.6266,"ARG_OF_PERICENTER":90.4307,"MEAN_ANOMALY":269.6792,"EPHEMERIS_TYPE":0,"CLASSIFICATION_TYPE":"U","NORAD_CAT_ID":59215,"ELEMENT_SET_NO":999,"REV_AT_EPOCH":11302,"BSTAR":5.1971e-5,"MEAN_MOTION_DOT":1.18e-5,"MEAN_MOTION_DDOT":0},{"OBJECT_NAME":"OBJECT M","OBJECT_ID":"2025-155M","EPOCH":"2026-03-09T22:37:12.666144","MEAN_MOTION":15.33288683,"ECCENTRICITY":0.00088001,"INCLINATION":97.4429,"RA_OF_ASC_NODE":38.1052,"ARG_OF_PERICENTER":139.1253,"MEAN_ANOMALY":221.0651,"EPHEMERIS_TYPE":0,"CLASSIFICATION_TYPE":"U","NORAD_CAT_ID":64887,"ELEMENT_SET_NO":999,"REV_AT_EPOCH":6565,"BSTAR":0.00087834095,"MEAN_MOTION_DOT":0.00028279,"MEAN_MOTION_DDOT":0}]
